2024-203C               
1 61871U 24203C   26067.81773876  .00017593  00000+0  73309-3 0  9991
2 61871  97.4332 137.9023 0011476 346.2559  13.8364 15.23715458 73579
STARLINK-34020          
1 63939U 25098P   26068.94711182  .01381015  00000+0  10051+0 0  9993
2 63939  69.9999 273.6983 0006008 279.1052  80.9428 15.00378099 46598
