[{"OBJECT_NAME":"OBJECT C","OBJECT_ID":"2024-203C","EPOCH":"2026-03-08T19:37:32.628864","MEAN_MOTION":15.23715458,"ECCENTRICITY":0.00114765,"INCLINATION":97.4332,"RA_OF_ASC_NODE":137.9023,"ARG_OF_PERICENTER":346.2559,"MEAN_ANOMALY":13.8364,"EPHEMERIS_TYPE":0,"CLASSIFICATION_TYPE":"U","NORAD_CAT_ID":61871,"ELEMENT_SET_NO":999,"REV_AT_EPOCH":7357,"BSTAR":0.00073309113,"MEAN_MOTION_DOT":0.00017593,"MEAN_MOTION_DDOT":0},{"OBJECT_NAME":"STARLINK-34020","OBJECT_ID":"2025-098P","EPOCH":"2026-03-09T22:43:50.461248","MEAN_MOTION":15.00378099,"ECCENTRICITY":0.00060082,"INCLINATION":69.9999,"RA_OF_ASC_NODE":273.6983,"ARG_OF_PERICENTER":279.1052,"MEAN_ANOMALY":80.9428,"EPHEMERIS_TYPE":0,"CLASSIFICATION_TYPE":"U","NORAD_CAT_ID":63939,"ELEMENT_SET_NO":999,"REV_AT_EPOCH":4659,"BSTAR":0.10050739,"MEAN_MOTION_DOT":0.01381015,"MEAN_MOTION_DDOT":0}]
